      2.10          N: GNSS NAV DATA                        RINEX VERSION / TYPE
fic2rin                                 09/24/2021 00:17:32 PGM / RUN BY / DATE
                                                            END OF HEADER
30 21  9 24  0  0  0.0-4.758564755321e-04-3.751665644813e-12 0.000000000000e+00
    6.600000000000e+01 7.046875000000e+01 5.057710673951e-09 1.397689989730e+00
    3.777444362640e-06 5.358249763958e-03 1.034513115883e-05 5.153649812698e+03
    4.320000000000e+05 1.676380634308e-08-2.413941820858e+00 8.754432201385e-08
    9.367657250583e-01 1.686875000000e+02-2.734303146724e+00-8.306060266464e-09
    8.893227581482e-11 1.000000000000e+00 2.176000000000e+03 0.000000000000e+00
    2.400000000000e+00 0.000000000000e+00 3.725290298462e-09 6.600000000000e+01
    4.248000000000e+05 4.000000000000e+00
19 21  9 24  0  0  0.0 5.690008401871e-05 5.002220859751e-12 0.000000000000e+00
    7.500000000000e+01-8.209375000000e+01 4.093384791621e-09 4.809106192862e-01
   -4.427507519722e-06 9.081450058147e-03 8.445233106613e-06 5.153652046204e+03
    4.320000000000e+05-3.166496753693e-08-2.354701441852e-01-1.285225152969e-07
    9.800550217169e-01 2.340625000000e+02 1.947296863313e+00-8.026405760589e-09
   -4.818057834305e-10 1.000000000000e+00 2.176000000000e+03 0.000000000000e+00
    2.400000000000e+00 0.000000000000e+00-1.536682248116e-08 7.500000000000e+01
    4.248000000000e+05 4.000000000000e+00
21 21  9 24  0  0  0.0 1.442562788725e-04 1.932676241267e-12 0.000000000000e+00
    4.400000000000e+01 1.228125000000e+01 4.154458764169e-09-1.796180474446e+00
    9.685754776001e-07 2.408214262687e-02 1.119449734688e-05 5.153645004272e+03
    4.320000000000e+05-3.241002559662e-07 6.291775055971e-01 5.047768354416e-07
    9.584214944908e-01 1.671562500000e+02-1.080567365534e+00-7.889971506126e-09
    2.585821995580e-10 1.000000000000e+00 2.176000000000e+03 0.000000000000e+00
    2.400000000000e+00 0.000000000000e+00-1.024454832077e-08 4.400000000000e+01
    4.248000000000e+05 4.000000000000e+00
24 21  9 24  0  0  0.0 2.410011366010e-04 7.730704965070e-12 0.000000000000e+00
    6.200000000000e+01 6.250000000000e+01 4.895203904892e-09 2.481632531099e+00
    3.162771463394e-06 1.160448987503e-02 1.220777630806e-05 5.153719957352e+03
    4.320000000000e+05-7.636845111847e-08-2.509561616560e+00-2.272427082062e-07
    9.350852081551e-01 1.278437500000e+02 7.594603508234e-01-7.988904198498e-09
    1.153619481453e-10 1.000000000000e+00 2.176000000000e+03 0.000000000000e+00
    2.400000000000e+00 0.000000000000e+00 2.793967723846e-09 6.200000000000e+01
    4.248000000000e+05 4.000000000000e+00
20 21  9 24  0  0  0.0 5.189864896238e-04-2.273736754432e-13 0.000000000000e+00
    3.800000000000e+01 3.556250000000e+01 5.200930925363e-09-2.981807037055e+00
    1.957640051842e-06 5.525946966372e-03 5.146488547325e-06 5.153653053284e+03
    4.320000000000e+05-5.215406417847e-08 1.602902558320e+00-3.725290298462e-09
    9.393961629465e-01 2.672500000000e+02 2.986385855072e+00-8.453923568421e-09
    4.289464387695e-10 1.000000000000e+00 2.176000000000e+03 0.000000000000e+00
    2.400000000000e+00 0.000000000000e+00-8.381903171539e-09 3.800000000000e+01
    4.248000000000e+05 4.000000000000e+00
17 21  9 24  0  0  0.0 5.091284401715e-04 5.570655048359e-12 0.000000000000e+00
    6.200000000000e+01-7.793750000000e+01 4.035882396416e-09-1.886869637888e+00
   -3.954395651817e-06 1.357889536303e-02 7.908791303635e-06 5.153666044235e+03
    4.320000000000e+05 1.955777406693e-07-2.804678994824e-01 2.607703208923e-07
    9.813972797759e-01 2.372812500000e+02-1.555760192914e+00-7.753894409397e-09
   -4.528760069606e-10 1.000000000000e+00 2.176000000000e+03 0.000000000000e+00
    3.400000000000e+00 0.000000000000e+00-1.117587089539e-08 6.200000000000e+01
    4.248000000000e+05 4.000000000000e+00
14 21  9 24  0  0  0.0-4.964880645275e-06-7.958078640513e-12 0.000000000000e+00
    1.840000000000e+02 3.490625000000e+01 5.080568768939e-09 7.261490244387e-01
    1.754611730576e-06 1.115564256907e-03 2.440065145493e-06 5.153642402649e+03
    4.320000000000e+05 3.539025783539e-08-1.346326014328e+00-2.607703208923e-08
    9.551943015967e-01 3.270625000000e+02 3.118763999828e+00-8.571428462972e-09
   -1.464346710204e-11 1.000000000000e+00 2.176000000000e+03 0.000000000000e+00
    2.400000000000e+00 0.000000000000e+00-7.916241884232e-09 1.840000000000e+02
    4.248000000000e+05 4.000000000000e+00
23 21  9 24  0  0  0.0 5.366699770093e-05-4.774847184308e-12 0.000000000000e+00
    5.200000000000e+01 2.084375000000e+01 4.747697760669e-09 1.690751618454e+00
    1.026317477226e-06 1.707012532279e-03 5.040317773819e-06 5.153668085098e+03
    4.320000000000e+05 5.587935447693e-09 1.725811727351e+00 7.450580596924e-09
    9.652210894470e-01 2.847812500000e+02 2.691473127345e+00-8.233200088688e-09
    3.135844906242e-10 1.000000000000e+00 2.176000000000e+03 0.000000000000e+00
    2.400000000000e+00 0.000000000000e+00-8.381903171539e-09 8.200000000000e+02
    4.248000000000e+05 4.000000000000e+00
18 21  9 24  0  0  0.0 3.188410773873e-04-4.547473508865e-12 0.000000000000e+00
    3.700000000000e+01-1.906250000000e+00 3.993380626046e-09 2.431135004040e+00
   -1.117587089539e-08 1.967680873349e-03 1.152418553829e-05 5.153653432846e+03
    4.320000000000e+05-1.676380634308e-08 7.260657039395e-01 1.862645149231e-08
    9.693991278905e-01 1.620625000000e+02 2.958069969682e+00-7.755680198068e-09
    2.967980771169e-10 1.000000000000e+00 2.176000000000e+03 0.000000000000e+00
    2.400000000000e+00 0.000000000000e+00-8.381903171539e-09 5.490000000000e+02
    4.248000000000e+05 4.000000000000e+00
11 21  9 24  0  0  0.0 1.956615597010e-05 1.932676241267e-12 0.000000000000e+00
    1.840000000000e+02 1.731250000000e+01 4.125171829965e-09-1.244101882271e+00
    9.592622518539e-07 4.890485433862e-04 1.150183379650e-05 5.153709762573e+03
    4.320000000000e+05-9.313225746155e-09 7.632352148960e-01 6.332993507385e-08
    9.606378958414e-01 1.561562500000e+02 2.139730862962e+00-7.842112369743e-09
    4.068026592493e-10 1.000000000000e+00 2.176000000000e+03 0.000000000000e+00
    3.840000000000e+02 6.300000000000e+01-8.381903171539e-09 1.840000000000e+02
    4.248000000000e+05 4.000000000000e+00
28 21  9 24  0  0  0.0 4.954468458891e-04-7.275957614183e-12 0.000000000000e+00
    4.600000000000e+01 2.928125000000e+01 4.746983445200e-09-1.419213344595e+00
    1.735985279083e-06 1.747576834168e-02 3.037974238396e-06 5.153715652466e+03
    4.320000000000e+05-2.793967723846e-07-1.295061000946e+00 2.719461917877e-07
    9.708799242916e-01 3.293125000000e+02-1.334227241474e+00-8.504282808943e-09
   -1.107188976008e-11 1.000000000000e+00 2.176000000000e+03 0.000000000000e+00
    4.850000000000e+00 6.300000000000e+01-1.117587089539e-08 4.600000000000e+01
    4.248000000000e+05 4.000000000000e+00
32 21  9 23 23 59 44.0-3.299210220575e-06-3.637978807092e-12 0.000000000000e+00
    2.000000000000e+00-5.190625000000e+01 4.774484590733e-09-1.205337085482e+00
   -2.611428499222e-06 5.105201154947e-03 8.126720786095e-06 5.153719911575e+03
    4.319840000000e+05 1.266598701477e-07 2.792722426384e+00 3.539025783539e-08
    9.578947079309e-01 2.201250000000e+02-2.377896704348e+00-8.145339286076e-09
   -3.671581507536e-10 1.000000000000e+00 2.176000000000e+03 0.000000000000e+00
    2.400000000000e+00 0.000000000000e+00 4.656612873077e-10 2.000000000000e+00
    4.273200000000e+05 4.000000000000e+00
 5 21  9 23 23 59 44.0-5.540391430259e-05-1.250555214938e-12 0.000000000000e+00
    1.800000000000e+01 2.453125000000e+01 4.881989068726e-09-1.554386773237e+00
    1.396983861923e-06 6.092589464970e-03 4.464760422707e-06 5.153583711624e+03
    4.319840000000e+05 1.396983861923e-07 1.714304355223e+00 0.000000000000e+00
    9.573241903609e-01 2.849687500000e+02 9.969296237661e-01-8.320703733566e-09
    3.707297280955e-10 1.000000000000e+00 2.176000000000e+03 0.000000000000e+00
    2.400000000000e+00 0.000000000000e+00-1.117587089539e-08 1.800000000000e+01
    4.275900000000e+05 4.000000000000e+00
